{
    "links": {
        "self": "http://www.neowsapp.com/rest/v1/neo/3843681?api_key=iIulBulltgU6a56xZRHN4H3l9WmuAYTsLGpBGhQ2"
    },
    "id": "3843681",
    "neo_reference_id": "3843681",
    "name": "(2019 QS5)",
    "designation": "2019 QS5",
    "nasa_jpl_url": "http://ssd.jpl.nasa.gov/sbdb.cgi?sstr=3843681",
    "absolute_magnitude_h": 23.1,
    "estimated_diameter": {
        "kilometers": {
            "estimated_diameter_min": 0.063760979,
            "estimated_diameter_max": 0.1425738833
        },
        "meters": {
            "estimated_diameter_min": 63.7609789875,
            "estimated_diameter_max": 142.5738833281
        },
        "miles": {
            "estimated_diameter_min": 0.0396192233,
            "estimated_diameter_max": 0.0885912765
        },
        "feet": {
            "estimated_diameter_min": 209.1895703015,
            "estimated_diameter_max": 467.7620993781
        }
    },
    "is_potentially_hazardous_asteroid": false,
    "close_approach_data": [
        {
            "close_approach_date": "2019-08-17",
            "close_approach_date_full": "2019-Aug-17 08:43",
            "epoch_date_close_approach": 1566031380000,
            "relative_velocity": {
                "kilometers_per_second": "9.3073194847",
                "kilometers_per_hour": "33506.3501449097",
                "miles_per_hour": "20819.5429553191"
            },
            "miss_distance": {
                "astronomical": "0.2552274062",
                "lunar": "99.2834610118",
                "kilometers": "38181476.333144794",
                "miles": "23724869.2566103972"
            },
            "orbiting_body": "Earth"
        }
    ],
    "orbital_data": {
        "orbit_id": "3",
        "orbit_determination_date": "2019-10-30 08:01:41",
        "first_observation_date": "2019-08-28",
        "last_observation_date": "2019-09-03",
        "data_arc_in_days": 6,
        "observations_used": 32,
        "orbit_uncertainty": "8",
        "minimum_orbit_intersection": ".250804",
        "jupiter_tisserand_invariant": "4.708",
        "epoch_osculation": "2458724.5",
        "eccentricity": ".1337378096170695",
        "semi_major_axis": "1.393699884763025",
        "inclination": "18.24039584604474",
        "ascending_node_longitude": "333.81039679",
        "orbital_period": "600.9693498982344",
        "perihelion_distance": "1.207309514911256",
        "perihelion_argument": "301.7542439883276",
        "aphelion_distance": "1.580090254614794",
        "perihelion_time": "2458648.182134730895",
        "mean_anomaly": "45.71685977251618",
        "mean_motion": ".599032213641113",
        "equinox": "J2000",
        "orbit_class": {
            "orbit_class_type": "AMO",
            "orbit_class_description": "Near-Earth asteroid orbits similar to that of 1221 Amor",
            "orbit_class_range": "1.017 AU < q (perihelion) < 1.3 AU"
        }
    },
    "is_sentry_object": false
}